start=new Date('2021-10-03T00:00:00.000Z').valueOf();
sats=[{"NORAD_CAT_ID":"48654","INCLINATION":"53.0560","OBJECT_TYPE":"PAYLOAD","EPHEMERIS_TYPE":"0","MEAN_ANOMALY":"295.3531","SEMIMAJOR_AXIS":"6925.361","GP_ID":"186053537","OBJECT_ID":"2021-044S","FILE":"3141323","LAUNCH_DATE":"2021-05-26","COUNTRY_CODE":"US","REF_FRAME":"TEME","MEAN_MOTION":"15.06395783","MEAN_ELEMENT_THEORY":"SGP4","PERIOD":"95.592","TIME_SYSTEM":"UTC","REV_AT_EPOCH":"1969","ECCENTRICITY":"0.00016180","ARG_OF_PERICENTER":"64.7626","MEAN_MOTION_DOT":"-0.00000026","SITE":"AFETR","MEAN_MOTION_DDOT":"0.0000000000000","RCS_SIZE":"LARGE","EPOCH":"2021-10-02T17:52:50.569536","APOAPSIS":"548.347","PERIAPSIS":"546.106","BSTAR":"0.00001717500000","CLASSIFICATION_TYPE":"U","CENTER_NAME":"EARTH","TLE_LINE1":"1 48654U 21044S   21275.74502974 -.00000026  00000-0  17175-4 0  9997","TLE_LINE2":"2 48654  53.0560 189.3410 0001618  64.7626 295.3531 15.06395783 19691","DECAY_DATE":null,"ELEMENT_SET_NO":"999","OBJECT_NAME":"STARLINK-2651","RA_OF_ASC_NODE":"189.3410"},{"ARG_OF_PERICENTER":"352.8310","MEAN_MOTION_DOT":"-0.00081189","RCS_SIZE":"LARGE","MEAN_MOTION_DDOT":"0.0000000000000","SITE":"AFETR","APOAPSIS":"551.018","EPOCH":"2021-10-02T11:25:41.038752","PERIAPSIS":"545.724","BSTAR":"-0.00554950000000","TLE_LINE2":"2 48655  53.0547 190.5450 0003821 352.8310   7.2623 15.06022446 19655","TLE_LINE1":"1 48655U 21044T   21275.47616943 -.00081189  00000-0 -55495-2 0  9995","DECAY_DATE":null,"CLASSIFICATION_TYPE":"U","CENTER_NAME":"EARTH","OBJECT_NAME":"STARLINK-2657","RA_OF_ASC_NODE":"190.5450","ELEMENT_SET_NO":"999","EPHEMERIS_TYPE":"0","MEAN_ANOMALY":"7.2623","NORAD_CAT_ID":"48655","OBJECT_TYPE":"PAYLOAD","INCLINATION":"53.0547","GP_ID":"186054188","OBJECT_ID":"2021-044T","FILE":"3141323","SEMIMAJOR_AXIS":"6926.506","COUNTRY_CODE":"US","LAUNCH_DATE":"2021-05-26","REF_FRAME":"TEME","MEAN_ELEMENT_THEORY":"SGP4","MEAN_MOTION":"15.06022446","PERIOD":"95.616","TIME_SYSTEM":"UTC","REV_AT_EPOCH":"1965","ECCENTRICITY":"0.00038210"},{"ELEMENT_SET_NO":"999","RA_OF_ASC_NODE":"189.3657","OBJECT_NAME":"STARLINK-2701","CENTER_NAME":"EARTH","CLASSIFICATION_TYPE":"U","TLE_LINE1":"1 48656U 21044U   21275.73765289  .00001091  00000-0  92130-4 0  9994","TLE_LINE2":"2 48656  53.0555 189.3657 0001750  63.9543 296.1626 15.06403327 19694","DECAY_DATE":null,"BSTAR":"0.00009213000000","PERIAPSIS":"545.991","EPOCH":"2021-10-02T17:42:13.209696","APOAPSIS":"548.415","SITE":"AFETR","MEAN_MOTION_DDOT":"0.0000000000000","RCS_SIZE":"LARGE","MEAN_MOTION_DOT":"0.00001091","ARG_OF_PERICENTER":"63.9543","REV_AT_EPOCH":"1969","ECCENTRICITY":"0.00017500","TIME_SYSTEM":"UTC","PERIOD":"95.592","MEAN_MOTION":"15.06403327","MEAN_ELEMENT_THEORY":"SGP4","REF_FRAME":"TEME","LAUNCH_DATE":"2021-05-26","COUNTRY_CODE":"US","SEMIMAJOR_AXIS":"6925.338","GP_ID":"186053973","FILE":"3141323","OBJECT_ID":"2021-044U","OBJECT_TYPE":"PAYLOAD","INCLINATION":"53.0555","NORAD_CAT_ID":"48656","EPHEMERIS_TYPE":"0","MEAN_ANOMALY":"296.1626"},{"ARG_OF_PERICENTER":"46.4527","MEAN_MOTION_DOT":"0.00003386","SITE":"AFETR","MEAN_MOTION_DDOT":"0.0000000000000","RCS_SIZE":"LARGE","APOAPSIS":"548.429","EPOCH":"2021-10-02T19:12:29.229120","PERIAPSIS":"546.018","BSTAR":"0.00024611000000","CLASSIFICATION_TYPE":"U","CENTER_NAME":"EARTH","TLE_LINE1":"1 48657U 21044V   21275.80033830  .00003386  00000-0  24611-3 0  9990","TLE_LINE2":"2 48657  53.0550 189.0846 0001741  46.4527 313.6607 15.06396828 19708","DECAY_DATE":null,"ELEMENT_SET_NO":"999","OBJECT_NAME":"STARLINK-2734","RA_OF_ASC_NODE":"189.0846","NORAD_CAT_ID":"48657","INCLINATION":"53.0550","OBJECT_TYPE":"PAYLOAD","MEAN_ANOMALY":"313.6607","EPHEMERIS_TYPE":"0","SEMIMAJOR_AXIS":"6925.358","OBJECT_ID":"2021-044V","GP_ID":"186053429","FILE":"3141323","LAUNCH_DATE":"2021-05-26","COUNTRY_CODE":"US","REF_FRAME":"TEME","MEAN_MOTION":"15.06396828","MEAN_ELEMENT_THEORY":"SGP4","PERIOD":"95.592","TIME_SYSTEM":"UTC","REV_AT_EPOCH":"1970","ECCENTRICITY":"0.00017410"},{"BSTAR":"0.00006424800000","PERIAPSIS":"546.107","ELEMENT_SET_NO":"999","OBJECT_NAME":"STARLINK-2647","RA_OF_ASC_NODE":"190.5996","CLASSIFICATION_TYPE":"U","CENTER_NAME":"EARTH","DECAY_DATE":null,"TLE_LINE2":"2 48658  53.0563 190.5996 0001627  79.4506 280.6666 15.06393262 19653","TLE_LINE1":"1 48658U 21044W   21275.46490048  .00000675  00000-0  64248-4 0  9990","MEAN_MOTION_DOT":"0.00000675","ARG_OF_PERICENTER":"79.4506","APOAPSIS":"548.361","EPOCH":"2021-10-02T11:09:27.401472","SITE":"AFETR","MEAN_MOTION_DDOT":"0.0000000000000","RCS_SIZE":"LARGE","MEAN_MOTION":"15.06393262","MEAN_ELEMENT_THEORY":"SGP4","TIME_SYSTEM":"UTC","REV_AT_EPOCH":"1965","ECCENTRICITY":"0.00016270","PERIOD":"95.593","SEMIMAJOR_AXIS":"6925.369","GP_ID":"186053865","FILE":"3141323","OBJECT_ID":"2021-044W","NORAD_CAT_ID":"48658","OBJECT_TYPE":"PAYLOAD","INCLINATION":"53.0563","MEAN_ANOMALY":"280.6666","EPHEMERIS_TYPE":"0","REF_FRAME":"TEME","LAUNCH_DATE":"2021-05-26","COUNTRY_CODE":"US"},{"RCS_SIZE":"LARGE","MEAN_MOTION_DDOT":"0.0000000000000","SITE":"AFETR","EPOCH":"2021-10-02T19:01:51.165120","APOAPSIS":"548.508","ARG_OF_PERICENTER":"60.3789","MEAN_MOTION_DOT":"-0.00000641","TLE_LINE2":"2 48659  53.0557 189.1216 0001895  60.3789 299.7388 15.06405744 19702","TLE_LINE1":"1 48659U 21044X   21275.79295330 -.00000641  00000-0 -24107-4 0  9999","DECAY_DATE":null,"CLASSIFICATION_TYPE":"U","CENTER_NAME":"EARTH","OBJECT_NAME":"STARLINK-2717","RA_OF_ASC_NODE":"189.1216","ELEMENT_SET_NO":"999","PERIAPSIS":"545.884","BSTAR":"-0.00002410700000","COUNTRY_CODE":"US","LAUNCH_DATE":"2021-05-26","REF_FRAME":"TEME","MEAN_ANOMALY":"299.7388","EPHEMERIS_TYPE":"0","NORAD_CAT_ID":"48659","OBJECT_TYPE":"PAYLOAD","INCLINATION":"53.0557","GP_ID":"186054082","FILE":"3141323","OBJECT_ID":"2021-044X","SEMIMAJOR_AXIS":"6925.331","PERIOD":"95.592","TIME_SYSTEM":"UTC","REV_AT_EPOCH":"1970","ECCENTRICITY":"0.00018950","MEAN_ELEMENT_THEORY":"SGP4","MEAN_MOTION":"15.06405744"},{"BSTAR":"0.00002078200000","PERIAPSIS":"546.020","ELEMENT_SET_NO":"999","RA_OF_ASC_NODE":"190.6252","OBJECT_NAME":"STARLINK-2688","CENTER_NAME":"EARTH","CLASSIFICATION_TYPE":"U","TLE_LINE2":"2 48660  53.0553 190.6252 0001751  62.6686 297.4481 15.06393876 19654","DECAY_DATE":null,"TLE_LINE1":"1 48660U 21044Y   21275.45753012  .00000028  00000-0  20782-4 0  9992","MEAN_MOTION_DOT":"0.00000028","ARG_OF_PERICENTER":"62.6686","EPOCH":"2021-10-02T10:58:50.602368","APOAPSIS":"548.445","SITE":"AFETR","MEAN_MOTION_DDOT":"0.0000000000000","RCS_SIZE":"LARGE","MEAN_MOTION":"15.06393876","MEAN_ELEMENT_THEORY":"SGP4","REV_AT_EPOCH":"1965","ECCENTRICITY":"0.00017510","TIME_SYSTEM":"UTC","PERIOD":"95.593","SEMIMAJOR_AXIS":"6925.367","GP_ID":"186053646","FILE":"3141323","OBJECT_ID":"2021-044Y","INCLINATION":"53.0553","OBJECT_TYPE":"PAYLOAD","NORAD_CAT_ID":"48660","EPHEMERIS_TYPE":"0","MEAN_ANOMALY":"297.4481","REF_FRAME":"TEME","LAUNCH_DATE":"2021-05-26","COUNTRY_CODE":"US"},{"REV_AT_EPOCH":"1979","ECCENTRICITY":"0.00017840","TIME_SYSTEM":"UTC","PERIOD":"95.592","MEAN_MOTION":"15.06398406","MEAN_ELEMENT_THEORY":"SGP4","REF_FRAME":"TEME","LAUNCH_DATE":"2021-05-26","COUNTRY_CODE":"US","SEMIMAJOR_AXIS":"6925.353","FILE":"3141323","GP_ID":"186053757","OBJECT_ID":"2021-044Z","INCLINATION":"53.0546","OBJECT_TYPE":"PAYLOAD","NORAD_CAT_ID":"48661","EPHEMERIS_TYPE":"0","MEAN_ANOMALY":"286.5911","ELEMENT_SET_NO":"999","RA_OF_ASC_NODE":"180.6147","OBJECT_NAME":"STARLINK-2708","CENTER_NAME":"EARTH","CLASSIFICATION_TYPE":"U","TLE_LINE2":"2 48661  53.0546 180.6147 0001784  73.5274 286.5911 15.06398406 19795","DECAY_DATE":null,"TLE_LINE1":"1 48661U 21044Z   21275.45845175  .00000643  00000-0  62097-4 0  9993","BSTAR":"0.00006209700000","PERIAPSIS":"545.983","APOAPSIS":"548.454","EPOCH":"2021-10-02T11:00:10.231200","MEAN_MOTION_DDOT":"0.0000000000000","SITE":"AFETR","RCS_SIZE":"LARGE","MEAN_MOTION_DOT":"0.00000643","ARG_OF_PERICENTER":"73.5274"},{"MEAN_MOTION_DOT":"0.00002720","ARG_OF_PERICENTER":"73.7774","APOAPSIS":"548.342","EPOCH":"2021-10-02T10:54:51.321888","RCS_SIZE":"LARGE","MEAN_MOTION_DDOT":"0.0000000000000","SITE":"AFETR","BSTAR":"0.00020144000000","PERIAPSIS":"546.076","OBJECT_NAME":"STARLINK-2726","RA_OF_ASC_NODE":"180.6313","ELEMENT_SET_NO":"999","TLE_LINE2":"2 48662  53.0539 180.6313 0001636  73.7774 286.3394 15.06401333 19793","TLE_LINE1":"1 48662U 21044AA  21275.45476067  .00002720  00000-0  20144-3 0  9998","DECAY_DATE":null,"CLASSIFICATION_TYPE":"U","CENTER_NAME":"EARTH","GP_ID":"186053538","FILE":"3141323","OBJECT_ID":"2021-044AA","SEMIMAJOR_AXIS":"6925.344","EPHEMERIS_TYPE":"0","MEAN_ANOMALY":"286.3394","NORAD_CAT_ID":"48662","INCLINATION":"53.0539","OBJECT_TYPE":"PAYLOAD","REF_FRAME":"TEME","COUNTRY_CODE":"US","LAUNCH_DATE":"2021-05-26","MEAN_ELEMENT_THEORY":"SGP4","MEAN_MOTION":"15.06401333","TIME_SYSTEM":"UTC","REV_AT_EPOCH":"1979","ECCENTRICITY":"0.00016360","PERIOD":"95.592"},{"CLASSIFICATION_TYPE":"U","CENTER_NAME":"EARTH","TLE_LINE1":"1 48663U 21044AB  21275.45108380  .00001062  00000-0  90200-4 0  9998","TLE_LINE2":"2 48663  53.0553 180.6460 0001833  73.1336 286.9854 15.06392691 19793","DECAY_DATE":null,"ELEMENT_SET_NO":"999","OBJECT_NAME":"STARLINK-2667","RA_OF_ASC_NODE":"180.6460","PERIAPSIS":"545.967","BSTAR":"0.00009020000000","SITE":"AFETR","MEAN_MOTION_DDOT":"0.0000000000000","RCS_SIZE":"LARGE","EPOCH":"2021-10-02T10:49:33.640320","APOAPSIS":"548.505","ARG_OF_PERICENTER":"73.1336","MEAN_MOTION_DOT":"0.00001062","PERIOD":"95.593","TIME_SYSTEM":"UTC","REV_AT_EPOCH":"1979","ECCENTRICITY":"0.00018330","MEAN_MOTION":"15.06392691","MEAN_ELEMENT_THEORY":"SGP4","LAUNCH_DATE":"2021-05-26","COUNTRY_CODE":"US","REF_FRAME":"TEME","NORAD_CAT_ID":"48663","OBJECT_TYPE":"PAYLOAD","INCLINATION":"53.0553","EPHEMERIS_TYPE":"0","MEAN_ANOMALY":"286.9854","SEMIMAJOR_AXIS":"6925.371","GP_ID":"186054189","OBJECT_ID":"2021-044AB","FILE":"3141323"}];
